[{"OBJECT_NAME":"ONEWEB-0237","OBJECT_ID":"2021-045D","EPOCH":"2026-03-15T07:10:25.976064","MEAN_MOTION":13.15548095,"ECCENTRICITY":0.00017683,"INCLINATION":87.8931,"RA_OF_ASC_NODE":277.954,"ARG_OF_PERICENTER":99.0798,"MEAN_ANOMALY":261.0533,"EPHEMERIS_TYPE":0,"CLASSIFICATION_TYPE":"U","NORAD_CAT_ID":48770,"ELEMENT_SET_NO":999,"REV_AT_EPOCH":23204,"BSTAR":0.00014234333,"MEAN_MOTION_DOT":6.6e-7,"MEAN_MOTION_DDOT":0},{"OBJECT_NAME":"ONEWEB-0235","OBJECT_ID":"2021-045E","EPOCH":"2026-03-15T06:33:55.425024","MEAN_MOTION":13.1554844,"ECCENTRICITY":0.00020254,"INCLINATION":87.8943,"RA_OF_ASC_NODE":277.9359,"ARG_OF_PERICENTER":100.9778,"MEAN_ANOMALY":259.1581,"EPHEMERIS_TYPE":0,"CLASSIFICATION_TYPE":"U","NORAD_CAT_ID":48771,"ELEMENT_SET_NO":999,"REV_AT_EPOCH":23203,"BSTAR":-7.3583969e-5,"MEAN_MOTION_DOT":-1.5e-7,"MEAN_MOTION_DDOT":0},{"OBJECT_NAME":"ONEWEB-0242","OBJECT_ID":"2021-045F","EPOCH":"2026-03-15T06:24:47.647296","MEAN_MOTION":13.15548848,"ECCENTRICITY":0.00016348,"INCLINATION":87.8944,"RA_OF_ASC_NODE":277.9327,"ARG_OF_PERICENTER":96.7826,"MEAN_ANOMALY":263.349,"EPHEMERIS_TYPE":0,"CLASSIFICATION_TYPE":"U","NORAD_CAT_ID":48772,"ELEMENT_SET_NO":999,"REV_AT_EPOCH":23207,"BSTAR":4.9189763e-5,"MEAN_MOTION_DOT":3.1e-7,"MEAN_MOTION_DDOT":0},{"OBJECT_NAME":"ONEWEB-0241","OBJECT_ID":"2021-045G","EPOCH":"2026-03-15T06:06:32.936832","MEAN_MOTION":13.15548499,"ECCENTRICITY":0.00020603,"INCLINATION":87.8932,"RA_OF_ASC_NODE":277.9643,"ARG_OF_PERICENTER":93.7203,"MEAN_ANOMALY":266.4163,"EPHEMERIS_TYPE":0,"CLASSIFICATION_TYPE":"U","NORAD_CAT_ID":48773,"ELEMENT_SET_NO":999,"REV_AT_EPOCH":23198,"BSTAR":0.00027684707,"MEAN_MOTION_DOT":1.17e-6,"MEAN_MOTION_DDOT":0},{"OBJECT_NAME":"ONEWEB-0243","OBJECT_ID":"2021-045H","EPOCH":"2026-03-15T06:52:09.675840","MEAN_MOTION":13.15550964,"ECCENTRICITY":0.00016696,"INCLINATION":87.8934,"RA_OF_ASC_NODE":277.9687,"ARG_OF_PERICENTER":110.1351,"MEAN_ANOMALY":249.9959,"EPHEMERIS_TYPE":0,"CLASSIFICATION_TYPE":"U","NORAD_CAT_ID":48774,"ELEMENT_SET_NO":999,"REV_AT_EPOCH":23201,"BSTAR":6.81434e-6,"MEAN_MOTION_DOT":1.5e-7,"MEAN_MOTION_DDOT":0},{"OBJECT_NAME":"ONEWEB-0222","OBJECT_ID":"2021-045J","EPOCH":"2026-03-15T06:28:13.804608","MEAN_MOTION":13.15548825,"ECCENTRICITY":0.00018146,"INCLINATION":87.894,"RA_OF_ASC_NODE":277.9329,"ARG_OF_PERICENTER":93.2652,"MEAN_ANOMALY":266.8686,"EPHEMERIS_TYPE":0,"CLASSIFICATION_TYPE":"U","NORAD_CAT_ID":48775,"ELEMENT_SET_NO":999,"REV_AT_EPOCH":23205,"BSTAR":-5.971164e-6,"MEAN_MOTION_DOT":1.1e-7,"MEAN_MOTION_DDOT":0},{"OBJECT_NAME":"ONEWEB-0244","OBJECT_ID":"2021-045K","EPOCH":"2026-03-15T07:05:52.320480","MEAN_MOTION":13.15547425,"ECCENTRICITY":0.00017202,"INCLINATION":87.894,"RA_OF_ASC_NODE":277.9179,"ARG_OF_PERICENTER":95.2905,"MEAN_ANOMALY":264.8422,"EPHEMERIS_TYPE":0,"CLASSIFICATION_TYPE":"U","NORAD_CAT_ID":48776,"ELEMENT_SET_NO":999,"REV_AT_EPOCH":23262,"BSTAR":-0.00019445421,"MEAN_MOTION_DOT":-6.0e-7,"MEAN_MOTION_DDOT":0},{"OBJECT_NAME":"ONEWEB-0247","OBJECT_ID":"2021-045L","EPOCH":"2026-03-15T07:01:18.848928","MEAN_MOTION":13.1554844,"ECCENTRICITY":0.00020517,"INCLINATION":87.8931,"RA_OF_ASC_NODE":277.9625,"ARG_OF_PERICENTER":114.7452,"MEAN_ANOMALY":245.3892,"EPHEMERIS_TYPE":0,"CLASSIFICATION_TYPE":"U","NORAD_CAT_ID":48777,"ELEMENT_SET_NO":999,"REV_AT_EPOCH":23206,"BSTAR":-0.00015154478,"MEAN_MOTION_DOT":-4.4e-7,"MEAN_MOTION_DDOT":0},{"OBJECT_NAME":"ONEWEB-0245","OBJECT_ID":"2021-045M","EPOCH":"2026-03-15T06:54:27.383616","MEAN_MOTION":13.15548097,"ECCENTRICITY":0.00018764,"INCLINATION":87.8942,"RA_OF_ASC_NODE":277.934,"ARG_OF_PERICENTER":89.4983,"MEAN_ANOMALY":270.6362,"EPHEMERIS_TYPE":0,"CLASSIFICATION_TYPE":"U","NORAD_CAT_ID":48778,"ELEMENT_SET_NO":999,"REV_AT_EPOCH":23203,"BSTAR":-8.6686071e-5,"MEAN_MOTION_DOT":-2.0e-7,"MEAN_MOTION_DDOT":0},{"OBJECT_NAME":"ONEWEB-0229","OBJECT_ID":"2021-045N","EPOCH":"2026-03-15T06:47:36.786624","MEAN_MOTION":13.15548189,"ECCENTRICITY":0.0001619,"INCLINATION":87.8947,"RA_OF_ASC_NODE":277.9333,"ARG_OF_PERICENTER":95.59,"MEAN_ANOMALY":264.5415,"EPHEMERIS_TYPE":0,"CLASSIFICATION_TYPE":"U","NORAD_CAT_ID":48779,"ELEMENT_SET_NO":999,"REV_AT_EPOCH":23206,"BSTAR":1.0444873e-5,"MEAN_MOTION_DOT":1.7e-7,"MEAN_MOTION_DDOT":0},{"OBJECT_NAME":"ONEWEB-0228","OBJECT_ID":"2021-045P","EPOCH":"2026-03-15T02:07:10.464384","MEAN_MOTION":13.1554751,"ECCENTRICITY":0.00017156,"INCLINATION":87.894,"RA_OF_ASC_NODE":277.9595,"ARG_OF_PERICENTER":93.8948,"MEAN_ANOMALY":266.2378,"EPHEMERIS_TYPE":0,"CLASSIFICATION_TYPE":"U","NORAD_CAT_ID":48780,"ELEMENT_SET_NO":999,"REV_AT_EPOCH":23195,"BSTAR":0.00046047944,"MEAN_MOTION_DOT":1.86e-6,"MEAN_MOTION_DDOT":0},{"OBJECT_NAME":"ONEWEB-0232","OBJECT_ID":"2021-045Q","EPOCH":"2026-03-15T06:59:01.231008","MEAN_MOTION":13.1554708,"ECCENTRICITY":0.00016719,"INCLINATION":87.8953,"RA_OF_ASC_NODE":277.9187,"ARG_OF_PERICENTER":91.5596,"MEAN_ANOMALY":268.5726,"EPHEMERIS_TYPE":0,"CLASSIFICATION_TYPE":"U","NORAD_CAT_ID":48781,"ELEMENT_SET_NO":999,"REV_AT_EPOCH":23230,"BSTAR":7.8280625e-5,"MEAN_MOTION_DOT":4.2e-7,"MEAN_MOTION_DDOT":0},{"OBJECT_NAME":"ONEWEB-0231","OBJECT_ID":"2021-045R","EPOCH":"2026-03-15T06:27:04.968000","MEAN_MOTION":13.15548705,"ECCENTRICITY":0.00018846,"INCLINATION":87.8933,"RA_OF_ASC_NODE":277.949,"ARG_OF_PERICENTER":95.1881,"MEAN_ANOMALY":264.9465,"EPHEMERIS_TYPE":0,"CLASSIFICATION_TYPE":"U","NORAD_CAT_ID":48782,"ELEMENT_SET_NO":999,"REV_AT_EPOCH":23199,"BSTAR":-7.4017144e-5,"MEAN_MOTION_DOT":-1.5e-7,"MEAN_MOTION_DDOT":0},{"OBJECT_NAME":"ONEWEB-0234","OBJECT_ID":"2021-045S","EPOCH":"2026-03-15T01:53:02.793984","MEAN_MOTION":13.15549415,"ECCENTRICITY":0.00021486,"INCLINATION":87.893,"RA_OF_ASC_NODE":277.965,"ARG_OF_PERICENTER":70.0361,"MEAN_ANOMALY":290.1001,"EPHEMERIS_TYPE":0,"CLASSIFICATION_TYPE":"U","NORAD_CAT_ID":48783,"ELEMENT_SET_NO":999,"REV_AT_EPOCH":23210,"BSTAR":6.9530966e-5,"MEAN_MOTION_DOT":3.9e-7,"MEAN_MOTION_DDOT":0},{"OBJECT_NAME":"ONEWEB-0238","OBJECT_ID":"2021-045T","EPOCH":"2026-03-15T01:53:28.914432","MEAN_MOTION":13.15547599,"ECCENTRICITY":0.00018731,"INCLINATION":87.8931,"RA_OF_ASC_NODE":277.9585,"ARG_OF_PERICENTER":78.4961,"MEAN_ANOMALY":281.638,"EPHEMERIS_TYPE":0,"CLASSIFICATION_TYPE":"U","NORAD_CAT_ID":48784,"ELEMENT_SET_NO":999,"REV_AT_EPOCH":23200,"BSTAR":0.00039386859,"MEAN_MOTION_DOT":1.61e-6,"MEAN_MOTION_DDOT":0},{"OBJECT_NAME":"ONEWEB-0240","OBJECT_ID":"2021-045U","EPOCH":"2026-03-15T00:34:34.502016","MEAN_MOTION":13.15549236,"ECCENTRICITY":0.0001982,"INCLINATION":87.8953,"RA_OF_ASC_NODE":277.9724,"ARG_OF_PERICENTER":92.9121,"MEAN_ANOMALY":267.2236,"EPHEMERIS_TYPE":0,"CLASSIFICATION_TYPE":"U","NORAD_CAT_ID":48785,"ELEMENT_SET_NO":999,"REV_AT_EPOCH":23202,"BSTAR":0.00057310473,"MEAN_MOTION_DOT":2.29e-6,"MEAN_MOTION_DDOT":0},{"OBJECT_NAME":"ONEWEB-0246","OBJECT_ID":"2021-045V","EPOCH":"2026-03-15T00:26:34.249344","MEAN_MOTION":13.15548265,"ECCENTRICITY":0.0001609,"INCLINATION":87.8942,"RA_OF_ASC_NODE":277.9824,"ARG_OF_PERICENTER":94.9944,"MEAN_ANOMALY":265.137,"EPHEMERIS_TYPE":0,"CLASSIFICATION_TYPE":"U","NORAD_CAT_ID":48786,"ELEMENT_SET_NO":999,"REV_AT_EPOCH":23189,"BSTAR":0.0005492712,"MEAN_MOTION_DOT":2.2e-6,"MEAN_MOTION_DDOT":0}]
