ONEWEB-0237             
1 48770U 21045D   26074.29891176  .00000066  00000+0  14234-3 0  9998
2 48770  87.8931 277.9540 0001768  99.0798 261.0533 13.15548095232044
ONEWEB-0235             
1 48771U 21045E   26074.27355816 -.00000015  00000+0 -73584-4 0  9993
2 48771  87.8943 277.9359 0002025 100.9778 259.1581 13.15548440232037
ONEWEB-0242             
1 48772U 21045F   26074.26721814  .00000031  00000+0  49190-4 0  9990
2 48772  87.8944 277.9327 0001634  96.7826 263.3490 13.15548848232077
ONEWEB-0241             
1 48773U 21045G   26074.25454788  .00000117  00000+0  27685-3 0  9992
2 48773  87.8932 277.9643 0002060  93.7203 266.4163 13.15548499231988
ONEWEB-0243             
1 48774U 21045H   26074.28622310  .00000015  00000+0  68143-5 0  9997
2 48774  87.8934 277.9687 0001669 110.1351 249.9959 13.15550964232015
ONEWEB-0222             
1 48775U 21045J   26074.26960422  .00000011  00000+0 -59712-5 0  9994
2 48775  87.8940 277.9329 0001814  93.2652 266.8686 13.15548825232055
ONEWEB-0244             
1 48776U 21045K   26074.29574445 -.00000060  00000+0 -19445-3 0  9996
2 48776  87.8940 277.9179 0001720  95.2905 264.8422 13.15547425232622
ONEWEB-0247             
1 48777U 21045L   26074.29257927 -.00000044  00000+0 -15154-3 0  9995
2 48777  87.8931 277.9625 0002051 114.7452 245.3892 13.15548440232062
ONEWEB-0245             
1 48778U 21045M   26074.28781694 -.00000020  00000+0 -86686-4 0  9991
2 48778  87.8942 277.9340 0001876  89.4983 270.6362 13.15548097232038
ONEWEB-0229             
1 48779U 21045N   26074.28306466  .00000017  00000+0  10445-4 0  9996
2 48779  87.8947 277.9333 0001619  95.5900 264.5415 13.15548189232064
ONEWEB-0228             
1 48780U 21045P   26074.08831556  .00000186  00000+0  46048-3 0  9993
2 48780  87.8940 277.9595 0001715  93.8948 266.2378 13.15547510231950
ONEWEB-0232             
1 48781U 21045Q   26074.29098647  .00000042  00000+0  78281-4 0  9999
2 48781  87.8953 277.9187 0001671  91.5596 268.5726 13.15547080232301
ONEWEB-0231             
1 48782U 21045R   26074.26880750 -.00000015  00000+0 -74017-4 0  9996
2 48782  87.8933 277.9490 0001884  95.1881 264.9465 13.15548705231999
ONEWEB-0234             
1 48783U 21045S   26074.07850456  .00000039  00000+0  69531-4 0  9995
2 48783  87.8930 277.9650 0002148  70.0361 290.1001 13.15549415232104
ONEWEB-0238             
1 48784U 21045T   26074.07880688  .00000161  00000+0  39387-3 0  9997
2 48784  87.8931 277.9585 0001873  78.4961 281.6380 13.15547599232000
ONEWEB-0240             
1 48785U 21045U   26074.02401044  .00000229  00000+0  57310-3 0  9999
2 48785  87.8953 277.9724 0001982  92.9121 267.2236 13.15549236232022
ONEWEB-0246             
1 48786U 21045V   26074.01845196  .00000220  00000+0  54927-3 0  9991
2 48786  87.8942 277.9824 0001609  94.9944 265.1370 13.15548265231894
